#aV2008  7  4  0  0   .00000000      96 DD+AD WGS84 FIT  NGA
## 1486 432000.00000000   900.00000000 54651  .0000000000000
+   31     2  3  4  5  6  7  8  9 10 11 12 13 14 15 16 17 18
+         19 20 21 22 23 24 25 26 27 28 29 30 31 32  0  0  0
+          0  0  0  0  0  0  0  0  0  0  0  0  0  0  0  0  0
+          0  0  0  0  0  0  0  0  0  0  0  0  0  0  0  0  0
+          0  0  0  0  0  0  0  0  0  0  0  0  0  0  0  0  0
++         0  0  0  0  0  0  0  0  0  0  0  0  0  0  0  0  0
++         0  0  0  0  0  0  0  0  0  0  0  0  0  0  0  0  0
++         0  0  0  0  0  0  0  0  0  0  0  0  0  0  0  0  0
++         0  0  0  0  0  0  0  0  0  0  0  0  0  0  0  0  0
++         0  0  0  0  0  0  0  0  0  0  0  0  0  0  0  0  0
%c cc cc ccc ccc cccc cccc cccc cccc ccccc ccccc ccccc ccccc
%c cc cc ccc ccc cccc cccc cccc cccc ccccc ccccc ccccc ccccc
%f  0.0000000  0.000000000  0.00000000000  0.000000000000000
%f  0.0000000  0.000000000  0.00000000000  0.000000000000000
%i    0    0    0    0      0      0      0      0         0
%i    0    0    0    0      0      0      0      0         0
/*      NGA, ST. LOUIS,MO.                                  
/*   EPHEMERIS COMPUTED FROM  3 DAYS OF DATA                
/* CCCCCCCCCCCCCCCCCCCCCCCCCCCCCCCCCCCCCCCCCCCCCCCCCCCCCCCCC
/* CCCCCCCCCCCCCCCCCCCCCCCCCCCCCCCCCCCCCCCCCCCCCCCCCCCCCCCCC
*  2008  7  4  7 30   .00000000                                                 
P  2   3278.472342 -15214.530527  21383.489947    204.003429                    
V  2  26429.507467   7812.886235   1137.833470      -.019866                    
P  3  -6818.738421  22342.735311 -12563.713601    250.861608                    
V  3 -12850.645157   9733.465585  25156.713092       .052535                    
P  4  15610.628580  -9706.798201  19196.222043   -106.693987                    
V  4  22986.572875   8674.155346 -13875.211450      -.095410                    
P  5 -15147.175309 -18146.585845  11974.603929   -370.864904                    
V  5  -2276.149136 -15701.587315 -25929.701219       .152365                    
P  6 -12512.024677  21742.487130  -8563.636588    156.960796                    
V  6 -10272.808866   5572.745297  28488.771825       .046131                    
P  7  25625.621839   7076.997240  -1032.823237     -9.734253                    
V  7    432.028023   2940.170233  31713.279008       .061416                    
P  8  23506.460954   -544.460213 -12895.886241   -160.311755                    
V  8  14590.262049   6742.669891  26019.123913      -.016587                    
P  9 -17685.598731 -14662.407049 -14096.250645      3.697591                    
V  9  16605.204106   2736.936906 -24670.911421       .017813                    
P 10      5.643288 -25312.581696   7333.505158     -2.648652                    
V 10   4733.747080   8804.441221  30148.091029      -.002505                    
P 11  20693.582138  11959.124895 -12070.737344     23.860193                    
V 11 -15476.221527   2196.319030 -24336.969909      -.004962                    
P 12 -11739.438549 -21975.900533   9428.311835   -357.641202                    
V 12   -355.983300 -12039.482377 -28669.977480       .006112                    
P 13  19391.087258  -1145.875669  17986.237002    262.437982                    
V 13 -16872.020448  15685.436500  19073.286508       .015418                    
P 14 -21366.913863  15071.349976  -4231.759464   -248.163145                    
V 14   2823.369658  -5119.234605 -31841.261909       .043730                    
P 15   -746.187893 -18144.533612 -19357.753851   -137.073859                    
V 15  18727.928696 -16066.798896  14331.707537      -.062571                    
P 16  -3870.080803  23090.408946  12408.783108    118.521222                    
V 16  -5517.599930 -14897.638679  26345.879704      -.016569                    
P 17  21087.742775 -15513.575329  -3890.147465     38.594229                    
V 17  -1710.927450   5573.660204 -31310.438094       .000433                    
P 18 -15988.220488  -5208.371279 -20452.213409   -160.344326                    
V 18  -4202.100236 -26029.736874   9460.826423       .042844                    
P 19    705.952704  17453.959600 -19865.681832     33.033009                    
V 19 -20597.753866  15059.768598  12636.003782       .005666                    
P 20  12883.981977  20753.969974  10353.745616    110.701950                    
V 20    472.641156  13624.891971 -27551.713831      -.008483                    
P 21 -25864.712268  -3941.827975  -5994.099866     59.180652                    
V 21  -6423.299171  -5274.213461  29569.186442      -.012712                    
P 22 -12980.258336  10686.806850 -20392.848693    211.505741                    
V 22  -5913.245880 -25663.399109  -9670.558216      -.000777                    
P 23  11823.964816   9366.095451  21807.403709    362.634740                    
V 23 -20316.084554  18982.302667   2604.702054       .018844                    
P 24 -21824.878617 -13212.675690   7017.439196    106.816837                    
V 24   9308.419230     56.629619  30030.600659       .028709                    
P 25  23675.310438   9782.747444   7007.614069   -181.410555                    
V 25  -8821.389627    877.631578  30288.342891      -.072840                    
P 26   3750.110453 -18969.633279 -18442.823645    286.091457                    
V 26  17945.837496 -13712.870086  18765.332944       .070620                    
P 27  26050.539982   4740.170533  -2170.505728    200.286862                    
V 27   2888.951456   3226.329330  31716.383081       .027604                    
P 28  13116.495094  -8596.713843 -21000.207472    -20.707643                    
V 28   6285.605019  26905.889725  -7286.121191      -.003862                    
P 29 -17975.039405  -2279.983459  19528.733324    -42.018962                    
V 29  17445.590633 -17328.264729  14151.187519       .003736                    
P 30 -16182.141830 -10671.552966  17857.712573     84.249800                    
V 30  -4448.752762 -23011.929201 -17348.819799       .018494                    
P 31 -13694.346610  10530.584343  20408.164182    -25.304723                    
V 31 -24075.442144  -8169.407784 -11950.177509       .004915                    
P 32   6735.334188  25480.206203   4415.552472    304.073738                    
V 32  -1574.330239   5313.511500 -31175.690934       .033878                    
EOF
